{
  "type": "FeatureCollection",
  "features": [
    {
      "type": "Feature",
      "properties": {
        "norad_id": 37238,
        "name": "INTELSAT 17 (IS-17)",
        "group": "intelsat",
        "lat": 0.021631028286959033,
        "lon": 22.404204984906137,
        "alt_km": 35791.31808102665,
        "timestamp": "2025-12-13T15:35:11.782855+00:00",
        "meta_object_name": "INTELSAT 17 (IS-17)",
        "meta_object_id": "2010-065B",
        "meta_epoch": "2025-12-12T22:21:17.764704",
        "meta_mean_motion": 1.00271466,
        "meta_eccentricity": 0.00025323,
        "meta_inclination": 0.0073,
        "meta_ra_of_asc_node": 314.6662,
        "meta_arg_of_pericenter": 308.861,
        "meta_mean_anomaly": 219.6773,
        "meta_ephemeris_type": 0,
        "meta_classification_type": "U",
        "meta_norad_cat_id": 37238,
        "meta_element_set_no": 999,
        "meta_rev_at_epoch": 5138,
        "meta_bstar": 0,
        "meta_mean_motion_dot": 1.1e-07,
        "meta_mean_motion_ddot": 0,
        "tle_line1": "1 37238U 10065B   25346.93145561  .00000011  00000+0  00000+0 0  9999",
        "tle_line2": "2 37238   0.0073 314.6662 0002532 308.8610 219.6773  1.00271466 51380"
      },
      "geometry": {
        "type": "Point",
        "coordinates": [
          22.404204984906137,
          0.021631028286959033
        ]
      }
    },
    {
      "type": "Feature",
      "properties": {
        "norad_id": 37392,
        "name": "INTELSAT 28 (IS-28)",
        "group": "intelsat",
        "lat": -0.4622877382584886,
        "lon": -75.30069105992803,
        "alt_km": 35770.65720804046,
        "timestamp": "2025-12-13T15:35:11.782867+00:00",
        "meta_object_name": "INTELSAT 28 (IS-28)",
        "meta_object_id": "2011-016A",
        "meta_epoch": "2025-12-12T23:36:06.363072",
        "meta_mean_motion": 1.0027313,
        "meta_eccentricity": 0.00037789,
        "meta_inclination": 1.3254,
        "meta_ra_of_asc_node": 85.048,
        "meta_arg_of_pericenter": 181.1686,
        "meta_mean_anomaly": 138.0475,
        "meta_ephemeris_type": 0,
        "meta_classification_type": "U",
        "meta_norad_cat_id": 37392,
        "meta_element_set_no": 999,
        "meta_rev_at_epoch": 5141,
        "meta_bstar": 0,
        "meta_mean_motion_dot": -2.12e-06,
        "meta_mean_motion_ddot": 0,
        "tle_line1": "1 37392U 11016A   25346.98340698 -.00000212  00000+0  00000+0 0  9994",
        "tle_line2": "2 37392   1.3254  85.0480 0003778 181.1686 138.0475  1.00273130 51418"
      },
      "geometry": {
        "type": "Point",
        "coordinates": [
          -75.30069105992803,
          -0.4622877382584886
        ]
      }
    },
    {
      "type": "Feature",
      "properties": {
        "norad_id": 37834,
        "name": "INTELSAT 18 (IS-18)",
        "group": "intelsat",
        "lat": 0.0005840824029418736,
        "lon": 136.34881522184827,
        "alt_km": 35791.564983309465,
        "timestamp": "2025-12-13T15:35:11.782878+00:00",
        "meta_object_name": "INTELSAT 18 (IS-18)",
        "meta_object_id": "2011-056A",
        "meta_epoch": "2025-12-12T19:28:21.720864",
        "meta_mean_motion": 1.00271863,
        "meta_eccentricity": 0.00018648,
        "meta_inclination": 0.0134,
        "meta_ra_of_asc_node": 307.2412,
        "meta_arg_of_pericenter": 324.1242,
        "meta_mean_anomaly": 282.4712,
        "meta_ephemeris_type": 0,
        "meta_classification_type": "U",
        "meta_norad_cat_id": 37834,
        "meta_element_set_no": 999,
        "meta_rev_at_epoch": 5194,
        "meta_bstar": 0,
        "meta_mean_motion_dot": 6.5e-07,
        "meta_mean_motion_ddot": 0,
        "tle_line1": "1 37834U 11056A   25346.81136251  .00000065  00000+0  00000+0 0  9994",
        "tle_line2": "2 37834   0.0134 307.2412 0001864 324.1242 282.4712  1.00271863 51944"
      },
      "geometry": {
        "type": "Point",
        "coordinates": [
          136.34881522184827,
          0.0005840824029418736
        ]
      }
    },
    {
      "type": "Feature",
      "properties": {
        "norad_id": 38098,
        "name": "INTELSAT 22 (IS-22)",
        "group": "intelsat",
        "lat": 0.007388771484882516,
        "lon": 28.484471334342754,
        "alt_km": 35788.71115019484,
        "timestamp": "2025-12-13T15:35:11.782890+00:00",
        "meta_object_name": "INTELSAT 22 (IS-22)",
        "meta_object_id": "2012-011A",
        "meta_epoch": "2025-12-12T21:23:38.609376",
        "meta_mean_motion": 1.00270424,
        "meta_eccentricity": 0.00017355,
        "meta_inclination": 0.0297,
        "meta_ra_of_asc_node": 38.6614,
        "meta_arg_of_pericenter": 242.045,
        "meta_mean_anomaly": 194.1352,
        "meta_ephemeris_type": 0,
        "meta_classification_type": "U",
        "meta_norad_cat_id": 38098,
        "meta_element_set_no": 999,
        "meta_rev_at_epoch": 532,
        "meta_bstar": 0,
        "meta_mean_motion_dot": 0,
        "meta_mean_motion_ddot": 0,
        "tle_line1": "1 38098U 12011A   25346.89141909  .00000000  00000+0  00000+0 0  9992",
        "tle_line2": "2 38098   0.0297  38.6614 0001735 242.0450 194.1352  1.00270424  5324"
      },
      "geometry": {
        "type": "Point",
        "coordinates": [
          28.484471334342754,
          0.007388771484882516
        ]
      }
    },
    {
      "type": "Feature",
      "properties": {
        "norad_id": 38356,
        "name": "INTELSAT 19 (IS-19)",
        "group": "intelsat",
        "lat": 0.020194215524790848,
        "lon": 122.36274757302667,
        "alt_km": 35798.08429754251,
        "timestamp": "2025-12-13T15:35:11.782901+00:00",
        "meta_object_name": "INTELSAT 19 (IS-19)",
        "meta_object_id": "2012-030A",
        "meta_epoch": "2025-12-12T22:49:40.810656",
        "meta_mean_motion": 1.00272493,
        "meta_eccentricity": 0.00033957,
        "meta_inclination": 0.0096,
        "meta_ra_of_asc_node": 5.3555,
        "meta_arg_of_pericenter": 265.3355,
        "meta_mean_anomaly": 319.631,
        "meta_ephemeris_type": 0,
        "meta_classification_type": "U",
        "meta_norad_cat_id": 38356,
        "meta_element_set_no": 999,
        "meta_rev_at_epoch": 4858,
        "meta_bstar": 0,
        "meta_mean_motion_dot": -4.3e-07,
        "meta_mean_motion_ddot": 0,
        "tle_line1": "1 38356U 12030A   25346.95116679 -.00000043  00000+0  00000+0 0  9991",
        "tle_line2": "2 38356   0.0096   5.3555 0003395 265.3355 319.6310  1.00272493 48580"
      },
      "geometry": {
        "type": "Point",
        "coordinates": [
          122.36274757302667,
          0.020194215524790848
        ]
      }
    },
    {
      "type": "Feature",
      "properties": {
        "norad_id": 38740,
        "name": "INTELSAT 20 (IS-20)",
        "group": "intelsat",
        "lat": 0.0007682204288233007,
        "lon": 24.86095507805223,
        "alt_km": 35798.93163912041,
        "timestamp": "2025-12-13T15:35:11.782912+00:00",
        "meta_object_name": "INTELSAT 20 (IS-20)",
        "meta_object_id": "2012-043A",
        "meta_epoch": "2025-12-12T22:22:02.693568",
        "meta_mean_motion": 1.00270542,
        "meta_eccentricity": 0.00031999,
        "meta_inclination": 0.0042,
        "meta_ra_of_asc_node": 77.2715,
        "meta_arg_of_pericenter": 106.1488,
        "meta_mean_anomaly": 302.4698,
        "meta_ephemeris_type": 0,
        "meta_classification_type": "U",
        "meta_norad_cat_id": 38740,
        "meta_element_set_no": 999,
        "meta_rev_at_epoch": 4888,
        "meta_bstar": 0,
        "meta_mean_motion_dot": -1.2e-07,
        "meta_mean_motion_ddot": 0,
        "tle_line1": "1 38740U 12043A   25346.93197562 -.00000012  00000+0  00000+0 0  9996",
        "tle_line2": "2 38740   0.0042  77.2715 0003199 106.1488 302.4698  1.00270542 48880"
      },
      "geometry": {
        "type": "Point",
        "coordinates": [
          24.86095507805223,
          0.0007682204288233007
        ]
      }
    },
    {
      "type": "Feature",
      "properties": {
        "norad_id": 38749,
        "name": "INTELSAT 21 (IS-21)",
        "group": "intelsat",
        "lat": -0.019541836578916463,
        "lon": -101.62576182451865,
        "alt_km": 35778.3962373673,
        "timestamp": "2025-12-13T15:35:11.782924+00:00",
        "meta_object_name": "INTELSAT 21 (IS-21)",
        "meta_object_id": "2012-045A",
        "meta_epoch": "2025-12-12T23:28:37.081344",
        "meta_mean_motion": 1.002723,
        "meta_eccentricity": 0.00018002,
        "meta_inclination": 0.027,
        "meta_ra_of_asc_node": 69.998,
        "meta_arg_of_pericenter": 189.1103,
        "meta_mean_anomaly": 116.9669,
        "meta_ephemeris_type": 0,
        "meta_classification_type": "U",
        "meta_norad_cat_id": 38749,
        "meta_element_set_no": 999,
        "meta_rev_at_epoch": 4865,
        "meta_bstar": 0,
        "meta_mean_motion_dot": -2.72e-06,
        "meta_mean_motion_ddot": 0,
        "tle_line1": "1 38749U 12045A   25346.97820696 -.00000272  00000+0  00000+0 0  9990",
        "tle_line2": "2 38749   0.0270  69.9980 0001800 189.1103 116.9669  1.00272300 48651"
      },
      "geometry": {
        "type": "Point",
        "coordinates": [
          -101.62576182451865,
          -0.019541836578916463
        ]
      }
    }
  ]
}